0 STTW-T2
1 14899U 84035A   13280.61667467 -.00000375  00000-0  10000-3 0   269
2 14899 014.5506 000.8222 0011919 084.0339 276.1121 01.00214014 83617
0 STTW-T2
1 14899U 84035A   13287.60156220 -.00000390  00000-0  10000-3 0   284
2 14899 014.5519 000.7516 0012673 083.1959 276.9320 01.00210089 83686
0 STTW-T2
1 14899U 84035A   13293.58885086 -.00000386  00000-0  10000-3 0   293
2 14899 014.5540 000.6888 0012371 084.5765 275.5544 01.00207090 83744
0 STTW-T2
1 14899U 84035A   13294.58674052 -.00000384  00000-0  10000-3 0   303
2 14899 014.5542 000.6785 0012208 084.8635 275.2592 01.00206523 83751
